TRANSPORTER-16 OBJECT BJ
1 68472U 26067BJ  26103.93093618  .00001561  00000+0  16411-3 0  9997
2 68472  97.7580  63.1841 0002868 244.9986 115.0934 14.90845854  2153
