{
  "norad_id": 68472,
  "name": "TRANSPORTER-16 OBJECT BJ",
  "history": [
    {
      "epoch": "2026-04-13T22:20:32.885952Z",
      "apogee_km": 597.2971611673711,
      "perigee_km": 593.2963627494601,
      "latitude_deg": -4.6358921974067105e-05,
      "longitude_deg": -114.06755981025483,
      "height_km": 599.1862483314974,
      "semi_major_axis_km": 6973.433761958415,
      "eccentricity": 0.00028686,
      "inclination_deg": 97.758,
      "raan_deg": 63.1841,
      "arg_perigee_deg": 244.9986,
      "mean_anomaly_deg": 115.0934,
      "mean_motion_rev_day": 14.90845854
    }
  ]
}